{"type": "FeatureCollection", "features": [ {"type": "Feature", "properties": {"norad_id": 29930, "name": "FENGYUN 1C DEB", "group": "fengyun-1c-debris", "lat": 75.19888516330295, "lon": -162.73554839638368, "alt_km": 723.3593313778019, "timestamp": "2025-12-17T23:38:07.126326+00:00", "meta": {"OBJECT_NAME": "FENGYUN 1C DEB", "OBJECT_ID": "1999-025JC", "EPOCH": "2025-12-17T15:06:05.080608", "MEAN_MOTION": 14.20822588, "ECCENTRICITY": 0.01644561, "INCLINATION": 99.0442, "RA_OF_ASC_NODE": 233.9706, "ARG_OF_PERICENTER": 39.6641, "MEAN_ANOMALY": 19.6479, "EPHEMERIS_TYPE": 0, "CLASSIFICATION_TYPE": "U", "NORAD_CAT_ID": 29930, "ELEMENT_SET_NO": 999, "REV_AT_EPOCH": 97960, "BSTAR": 0.0002060996, "MEAN_MOTION_DOT": 4.63e-06, "MEAN_MOTION_DDOT": 0}, "tle": {"line1": "1 29930U 99025JC  25351.62922547  .00000463  00000+0  20610-3 0  9995", "line2": "2 29930  99.0442 233.9706 0164456  39.6641  19.6479 14.20822588979605"}}, "geometry": {"type": "Point", "coordinates": [-162.73554839638368, 75.19888516330295]}}, {"type": "Feature", "properties": {"norad_id": 29931, "name": "FENGYUN 1C DEB", "group": "fengyun-1c-debris", "lat": 59.034249511551245, "lon": -137.7739574398997, "alt_km": 856.5522301997689, "timestamp": "2025-12-17T23:38:07.126336+00:00", "meta": {"OBJECT_NAME": "FENGYUN 1C DEB", "OBJECT_ID": "1999-025JD", "EPOCH": "2025-12-17T15:04:15.983328", "MEAN_MOTION": 14.03897971, "ECCENTRICITY": 0.00324386, "INCLINATION": 98.8593, "RA_OF_ASC_NODE": 26.8128, "ARG_OF_PERICENTER": 80.5404, "MEAN_ANOMALY": 36.4638, "EPHEMERIS_TYPE": 0, "CLASSIFICATION_TYPE": "U", "NORAD_CAT_ID": 29931, "ELEMENT_SET_NO": 999, "REV_AT_EPOCH": 96881, "BSTAR": 0.00035947505, "MEAN_MOTION_DOT": 5.27e-06, "MEAN_MOTION_DDOT": 0}, "tle": {"line1": "1 29931U 99025JD  25351.62796277  .00000527  00000+0  35948-3 0  9996", "line2": "2 29931  98.8593  26.8128 0032438  80.5404  36.4638 14.03897971968817"}}, "geometry": {"type": "Point", "coordinates": [-137.7739574398997, 59.034249511551245]}}, {"type": "Feature", "properties": {"norad_id": 29932, "name": "FENGYUN 1C DEB", "group": "fengyun-1c-debris", "lat": 80.10832822473859, "lon": -116.87225871135809, "alt_km": 807.336443345811, "timestamp": "2025-12-17T23:38:07.126346+00:00", "meta": {"OBJECT_NAME": "FENGYUN 1C DEB", "OBJECT_ID": "1999-025JE", "EPOCH": "2025-12-17T13:37:00.177888", "MEAN_MOTION": 14.16768585, "ECCENTRICITY": 0.00384304, "INCLINATION": 98.634, "RA_OF_ASC_NODE": 2.1102, "ARG_OF_PERICENTER": 56.8794, "MEAN_ANOMALY": 69.7634, "EPHEMERIS_TYPE": 0, "CLASSIFICATION_TYPE": "U", "NORAD_CAT_ID": 29932, "ELEMENT_SET_NO": 999, "REV_AT_EPOCH": 97652, "BSTAR": 0.00025211782, "MEAN_MOTION_DOT": 4.66e-06, "MEAN_MOTION_DDOT": 0}, "tle": {"line1": "1 29932U 99025JE  25351.56736317  .00000466  00000+0  25212-3 0  9994", "line2": "2 29932  98.6340   2.1102 0038430  56.8794  69.7634 14.16768585976525"}}, "geometry": {"type": "Point", "coordinates": [-116.87225871135809, 80.10832822473859]}}, {"type": "Feature", "properties": {"norad_id": 29933, "name": "FENGYUN 1C DEB", "group": "fengyun-1c-debris", "lat": 21.31658379133825, "lon": 92.08022444547075, "alt_km": 672.5136906892612, "timestamp": "2025-12-17T23:38:07.126357+00:00", "meta": {"OBJECT_NAME": "FENGYUN 1C DEB", "OBJECT_ID": "1999-025JF", "EPOCH": "2025-12-17T12:39:39.741120", "MEAN_MOTION": 14.66042504, "ECCENTRICITY": 0.00048409, "INCLINATION": 98.7493, "RA_OF_ASC_NODE": 95.0386, "ARG_OF_PERICENTER": 310.4806, "MEAN_ANOMALY": 179.2487, "EPHEMERIS_TYPE": 0, "CLASSIFICATION_TYPE": "U", "NORAD_CAT_ID": 29933, "ELEMENT_SET_NO": 999, "REV_AT_EPOCH": 98575, "BSTAR": 0.002464899, "MEAN_MOTION_DOT": 0.00013491, "MEAN_MOTION_DDOT": 0}, "tle": {"line1": "1 29933U 99025JF  25351.52754330  .00013491  00000+0  24649-2 0  9990", "line2": "2 29933  98.7493  95.0386 0004840 310.4806 179.2487 14.66042504985751"}}, "geometry": {"type": "Point", "coordinates": [92.08022444547075, 21.31658379133825]}}, {"type": "Feature", "properties": {"norad_id": 29934, "name": "FENGYUN 1C DEB", "group": "fengyun-1c-debris", "lat": -80.95758330676246, "lon": 119.37061951359733, "alt_km": 629.9690330672138, "timestamp": "2025-12-17T23:38:07.126367+00:00", "meta": {"OBJECT_NAME": "FENGYUN 1C DEB", "OBJECT_ID": "1999-025JG", "EPOCH": "2025-12-17T14:11:40.504992", "MEAN_MOTION": 14.63832636, "ECCENTRICITY": 0.0100818, "INCLINATION": 98.9041, "RA_OF_ASC_NODE": 38.847, "ARG_OF_PERICENTER": 237.2342, "MEAN_ANOMALY": 121.9113, "EPHEMERIS_TYPE": 0, "CLASSIFICATION_TYPE": "U", "NORAD_CAT_ID": 29934, "ELEMENT_SET_NO": 999, "REV_AT_EPOCH": 99843, "BSTAR": 0.00067036507, "MEAN_MOTION_DOT": 3.707e-05, "MEAN_MOTION_DDOT": 0}, "tle": {"line1": "1 29934U 99025JG  25351.59144103  .00003707  00000+0  67037-3 0  9997", "line2": "2 29934  98.9041  38.8470 0100818 237.2342 121.9113 14.63832636998434"}}, "geometry": {"type": "Point", "coordinates": [119.37061951359733, -80.95758330676246]}}, {"type": "Feature", "properties": {"norad_id": 29935, "name": "FENGYUN 1C DEB", "group": "fengyun-1c-debris", "lat": -0.31551703161601685, "lon": -126.13748928032726, "alt_km": 746.0779146933046, "timestamp": "2025-12-17T23:38:07.126377+00:00", "meta": {"OBJECT_NAME": "FENGYUN 1C DEB", "OBJECT_ID": "1999-025JH", "EPOCH": "2025-12-17T10:58:18.472800", "MEAN_MOTION": 14.14240955, "ECCENTRICITY": 0.01503997, "INCLINATION": 98.4611, "RA_OF_ASC_NODE": 53.4095, "ARG_OF_PERICENTER": 202.5218, "MEAN_ANOMALY": 173.4121, "EPHEMERIS_TYPE": 0, "CLASSIFICATION_TYPE": "U", "NORAD_CAT_ID": 29935, "ELEMENT_SET_NO": 999, "REV_AT_EPOCH": 97609, "BSTAR": 0.00010722467, "MEAN_MOTION_DOT": 1.87e-06, "MEAN_MOTION_DDOT": 0}, "tle": {"line1": "1 29935U 99025JH  25351.45715825  .00000187  00000+0  10722-3 0  9996", "line2": "2 29935  98.4611  53.4095 0150399 202.5218 173.4121 14.14240955976097"}}, "geometry": {"type": "Point", "coordinates": [-126.13748928032726, -0.31551703161601685]}}, {"type": "Feature", "properties": {"norad_id": 29936, "name": "FENGYUN 1C DEB", "group": "fengyun-1c-debris", "lat": -75.84197603706359, "lon": -111.76732628865174, "alt_km": 776.4058664244076, "timestamp": "2025-12-17T23:38:07.126387+00:00", "meta": {"OBJECT_NAME": "FENGYUN 1C DEB", "OBJECT_ID": "1999-025JJ", "EPOCH": "2025-12-17T07:22:57.575712", "MEAN_MOTION": 14.3531799, "ECCENTRICITY": 0.01142312, "INCLINATION": 98.6564, "RA_OF_ASC_NODE": 104.7036, "ARG_OF_PERICENTER": 173.5233, "MEAN_ANOMALY": 186.7461, "EPHEMERIS_TYPE": 0, "CLASSIFICATION_TYPE": "U", "NORAD_CAT_ID": 29936, "ELEMENT_SET_NO": 999, "REV_AT_EPOCH": 98996, "BSTAR": 0.00017323854, "MEAN_MOTION_DOT": 4.88e-06, "MEAN_MOTION_DDOT": 0}, "tle": {"line1": "1 29936U 99025JJ  25351.30761083  .00000488  00000+0  17324-3 0  9997", "line2": "2 29936  98.6564 104.7036 0114231 173.5233 186.7461 14.35317990989962"}}, "geometry": {"type": "Point", "coordinates": [-111.76732628865174, -75.84197603706359]}}, {"type": "Feature", "properties": {"norad_id": 29937, "name": "FENGYUN 1C DEB", "group": "fengyun-1c-debris", "lat": 44.949729934858645, "lon": -158.2634112615031, "alt_km": 888.8777049416713, "timestamp": "2025-12-17T23:38:07.126397+00:00", "meta": {"OBJECT_NAME": "FENGYUN 1C DEB", "OBJECT_ID": "1999-025JK", "EPOCH": "2025-12-17T14:59:27.810816", "MEAN_MOTION": 14.04361137, "ECCENTRICITY": 0.00322059, "INCLINATION": 98.8024, "RA_OF_ASC_NODE": 12.4895, "ARG_OF_PERICENTER": 8.1957, "MEAN_ANOMALY": 105.8576, "EPHEMERIS_TYPE": 0, "CLASSIFICATION_TYPE": "U", "NORAD_CAT_ID": 29937, "ELEMENT_SET_NO": 999, "REV_AT_EPOCH": 97004, "BSTAR": -6.7598267e-05, "MEAN_MOTION_DOT": -1.51e-06, "MEAN_MOTION_DDOT": 0}, "tle": {"line1": "1 29937U 99025JK  25351.62462744 -.00000151  00000+0 -67598-4 0  9993", "line2": "2 29937  98.8024  12.4895 0032205   8.1957 105.8576 14.04361137970046"}}, "geometry": {"type": "Point", "coordinates": [-158.2634112615031, 44.949729934858645]}}, {"type": "Feature", "properties": {"norad_id": 29938, "name": "FENGYUN 1C DEB", "group": "fengyun-1c-debris", "lat": 60.52300614357026, "lon": 177.77294138843158, "alt_km": 885.8268757818823, "timestamp": "2025-12-17T23:38:07.126407+00:00", "meta": {"OBJECT_NAME": "FENGYUN 1C DEB", "OBJECT_ID": "1999-025JL", "EPOCH": "2025-12-17T13:25:46.751232", "MEAN_MOTION": 14.07461941, "ECCENTRICITY": 0.00326988, "INCLINATION": 98.8024, "RA_OF_ASC_NODE": 341.4487, "ARG_OF_PERICENTER": 296.8974, "MEAN_ANOMALY": 187.8971, "EPHEMERIS_TYPE": 0, "CLASSIFICATION_TYPE": "U", "NORAD_CAT_ID": 29938, "ELEMENT_SET_NO": 999, "REV_AT_EPOCH": 97124, "BSTAR": 0.00017846142, "MEAN_MOTION_DOT": 2.59e-06, "MEAN_MOTION_DDOT": 0}, "tle": {"line1": "1 29938U 99025JL  25351.55956888  .00000259  00000+0  17846-3 0  9990", "line2": "2 29938  98.8024 341.4487 0032698 296.8974 187.8971 14.07461941971249"}}, "geometry": {"type": "Point", "coordinates": [177.77294138843158, 60.52300614357026]}}, {"type": "Feature", "properties": {"norad_id": 29939, "name": "FENGYUN 1C DEB", "group": "fengyun-1c-debris", "lat": -16.689387997563713, "lon": 168.78808588888117, "alt_km": 842.5210640795312, "timestamp": "2025-12-17T23:38:07.126418+00:00", "meta": {"OBJECT_NAME": "FENGYUN 1C DEB", "OBJECT_ID": "1999-025JM", "EPOCH": "2025-12-17T14:45:21.695616", "MEAN_MOTION": 14.12085815, "ECCENTRICITY": 0.00671485, "INCLINATION": 98.7098, "RA_OF_ASC_NODE": 351.0629, "ARG_OF_PERICENTER": 124.8608, "MEAN_ANOMALY": 351.4839, "EPHEMERIS_TYPE": 0, "CLASSIFICATION_TYPE": "U", "NORAD_CAT_ID": 29939, "ELEMENT_SET_NO": 999, "REV_AT_EPOCH": 97529, "BSTAR": 5.4826267e-05, "MEAN_MOTION_DOT": 6.1e-07, "MEAN_MOTION_DDOT": 0}, "tle": {"line1": "1 29939U 99025JM  25351.61483444  .00000061  00000+0  54826-4 0  9992", "line2": "2 29939  98.7098 351.0629 0067148 124.8608 351.4839 14.12085815975296"}}, "geometry": {"type": "Point", "coordinates": [168.78808588888117, -16.689387997563713]}}]}